{"type": "FeatureCollection", "features": [ {"type": "Feature", "properties": {"norad_id": 66531, "name": "STARLINK-35960", "group": "last-30-days", "lat": -41.798371909790696, "lon": 24.129713593104885, "alt_km": 359.4968530447286, "timestamp": "2025-12-05T07:38:17.628159+00:00", "meta": {"OBJECT_NAME": "STARLINK-35960", "OBJECT_ID": "2025-265R", "EPOCH": "2025-12-04T18:00:02.000160", "MEAN_MOTION": 15.727441, "ECCENTRICITY": 0.0001581, "INCLINATION": 42.9999, "RA_OF_ASC_NODE": 101.1888, "ARG_OF_PERICENTER": 277.6115, "MEAN_ANOMALY": 25.6788, "EPHEMERIS_TYPE": 0, "CLASSIFICATION_TYPE": "U", "NORAD_CAT_ID": 66531, "ELEMENT_SET_NO": 999, "REV_AT_EPOCH": 371, "BSTAR": -0.015015, "MEAN_MOTION_DOT": -0.01825462, "MEAN_MOTION_DDOT": 0}, "tle": {"line1": "1 66531U 25265R   25338.75002315 -.01825462  00000+0 -15015-1 0  9997", "line2": "2 66531  42.9999 101.1888 0001581 277.6115  25.6788 15.72744100  3714"}}, "geometry": {"type": "Point", "coordinates": [24.129713593104885, -41.798371909790696]}}, {"type": "Feature", "properties": {"norad_id": 66532, "name": "STARLINK-35914", "group": "last-30-days", "lat": -41.40257395036666, "lon": 26.63308554920451, "alt_km": 359.63575694632436, "timestamp": "2025-12-05T07:38:17.628169+00:00", "meta": {"OBJECT_NAME": "STARLINK-35914", "OBJECT_ID": "2025-265S", "EPOCH": "2025-12-04T18:00:02.000160", "MEAN_MOTION": 15.72745066, "ECCENTRICITY": 0.0001373, "INCLINATION": 42.9998, "RA_OF_ASC_NODE": 101.184, "ARG_OF_PERICENTER": 275.0973, "MEAN_ANOMALY": 30.1127, "EPHEMERIS_TYPE": 0, "CLASSIFICATION_TYPE": "U", "NORAD_CAT_ID": 66532, "ELEMENT_SET_NO": 999, "REV_AT_EPOCH": 371, "BSTAR": -0.015039, "MEAN_MOTION_DOT": -0.01827856, "MEAN_MOTION_DDOT": 0}, "tle": {"line1": "1 66532U 25265S   25338.75002315 -.01827856  00000+0 -15039-1 0  9993", "line2": "2 66532  42.9998 101.1840 0001373 275.0973  30.1127 15.72745066  3715"}}, "geometry": {"type": "Point", "coordinates": [26.63308554920451, -41.40257395036666]}}, {"type": "Feature", "properties": {"norad_id": 66533, "name": "STARLINK-35707", "group": "last-30-days", "lat": -40.954702479509805, "lon": 29.09658605310356, "alt_km": 359.5869968208199, "timestamp": "2025-12-05T07:38:17.628181+00:00", "meta": {"OBJECT_NAME": "STARLINK-35707", "OBJECT_ID": "2025-265T", "EPOCH": "2025-12-04T18:00:02.000160", "MEAN_MOTION": 15.72744305, "ECCENTRICITY": 0.0001411, "INCLINATION": 42.9999, "RA_OF_ASC_NODE": 101.1795, "ARG_OF_PERICENTER": 281.798, "MEAN_ANOMALY": 25.327, "EPHEMERIS_TYPE": 0, "CLASSIFICATION_TYPE": "U", "NORAD_CAT_ID": 66533, "ELEMENT_SET_NO": 999, "REV_AT_EPOCH": 371, "BSTAR": -0.015022, "MEAN_MOTION_DOT": -0.01826018, "MEAN_MOTION_DDOT": 0}, "tle": {"line1": "1 66533U 25265T   25338.75002315 -.01826018  00000+0 -15022-1 0  9995", "line2": "2 66533  42.9999 101.1795 0001411 281.7980  25.3270 15.72744305  3711"}}, "geometry": {"type": "Point", "coordinates": [29.09658605310356, -40.954702479509805]}}, {"type": "Feature", "properties": {"norad_id": 66534, "name": "STARLINK-35976", "group": "last-30-days", "lat": -40.45405641895766, "lon": 31.530010660166738, "alt_km": 359.42700176724975, "timestamp": "2025-12-05T07:38:17.628191+00:00", "meta": {"OBJECT_NAME": "STARLINK-35976", "OBJECT_ID": "2025-265U", "EPOCH": "2025-12-04T18:00:02.000160", "MEAN_MOTION": 15.72744018, "ECCENTRICITY": 0.0001602, "INCLINATION": 43.0002, "RA_OF_ASC_NODE": 101.1751, "ARG_OF_PERICENTER": 283.1593, "MEAN_ANOMALY": 25.8821, "EPHEMERIS_TYPE": 0, "CLASSIFICATION_TYPE": "U", "NORAD_CAT_ID": 66534, "ELEMENT_SET_NO": 999, "REV_AT_EPOCH": 371, "BSTAR": -0.015011, "MEAN_MOTION_DOT": -0.01824974, "MEAN_MOTION_DDOT": 0}, "tle": {"line1": "1 66534U 25265U   25338.75002315 -.01824974  00000+0 -15011-1 0  9993", "line2": "2 66534  43.0002 101.1751 0001602 283.1593  25.8821 15.72744018  3717"}}, "geometry": {"type": "Point", "coordinates": [31.530010660166738, -40.45405641895766]}}, {"type": "Feature", "properties": {"norad_id": 66535, "name": "STARLINK-35514", "group": "last-30-days", "lat": -39.90253680568113, "lon": 33.925367554257086, "alt_km": 359.4343711333531, "timestamp": "2025-12-05T07:38:17.628201+00:00", "meta": {"OBJECT_NAME": "STARLINK-35514", "OBJECT_ID": "2025-265V", "EPOCH": "2025-12-04T18:00:02.000160", "MEAN_MOTION": 15.72744341, "ECCENTRICITY": 0.0001556, "INCLINATION": 43.0002, "RA_OF_ASC_NODE": 101.1699, "ARG_OF_PERICENTER": 283.5097, "MEAN_ANOMALY": 27.4487, "EPHEMERIS_TYPE": 0, "CLASSIFICATION_TYPE": "U", "NORAD_CAT_ID": 66535, "ELEMENT_SET_NO": 999, "REV_AT_EPOCH": 371, "BSTAR": -0.015012, "MEAN_MOTION_DOT": -0.01825116, "MEAN_MOTION_DDOT": 0}, "tle": {"line1": "1 66535U 25265V   25338.75002315 -.01825116  00000+0 -15012-1 0  9994", "line2": "2 66535  43.0002 101.1699 0001556 283.5097  27.4487 15.72744341  3715"}}, "geometry": {"type": "Point", "coordinates": [33.925367554257086, -39.90253680568113]}}, {"type": "Feature", "properties": {"norad_id": 66536, "name": "STARLINK-35640", "group": "last-30-days", "lat": -39.30279276162865, "lon": 36.279817786115544, "alt_km": 359.6092439758477, "timestamp": "2025-12-05T07:38:17.628210+00:00", "meta": {"OBJECT_NAME": "STARLINK-35640", "OBJECT_ID": "2025-265W", "EPOCH": "2025-12-04T18:00:02.000160", "MEAN_MOTION": 15.72743385, "ECCENTRICITY": 0.0001277, "INCLINATION": 43.0002, "RA_OF_ASC_NODE": 101.1655, "ARG_OF_PERICENTER": 282.9067, "MEAN_ANOMALY": 29.97, "EPHEMERIS_TYPE": 0, "CLASSIFICATION_TYPE": "U", "NORAD_CAT_ID": 66536, "ELEMENT_SET_NO": 999, "REV_AT_EPOCH": 369, "BSTAR": -0.015016, "MEAN_MOTION_DOT": -0.01825224, "MEAN_MOTION_DDOT": 0}, "tle": {"line1": "1 66536U 25265W   25338.75002315 -.01825224  00000+0 -15016-1 0  9999", "line2": "2 66536  43.0002 101.1655 0001277 282.9067  29.9700 15.72743385  3697"}}, "geometry": {"type": "Point", "coordinates": [36.279817786115544, -39.30279276162865]}}, {"type": "Feature", "properties": {"norad_id": 66537, "name": "STARLINK-35582", "group": "last-30-days", "lat": -38.65552287324081, "lon": 38.595306727403624, "alt_km": 359.4196620124503, "timestamp": "2025-12-05T07:38:17.628222+00:00", "meta": {"OBJECT_NAME": "STARLINK-35582", "OBJECT_ID": "2025-265X", "EPOCH": "2025-12-04T18:00:02.000160", "MEAN_MOTION": 15.72752991, "ECCENTRICITY": 0.0001519, "INCLINATION": 43.0004, "RA_OF_ASC_NODE": 101.1605, "ARG_OF_PERICENTER": 280.9947, "MEAN_ANOMALY": 33.792, "EPHEMERIS_TYPE": 0, "CLASSIFICATION_TYPE": "U", "NORAD_CAT_ID": 66537, "ELEMENT_SET_NO": 999, "REV_AT_EPOCH": 371, "BSTAR": -0.015091, "MEAN_MOTION_DOT": -0.01834073, "MEAN_MOTION_DDOT": 0}, "tle": {"line1": "1 66537U 25265X   25338.75002315 -.01834073  00000+0 -15091-1 0  9995", "line2": "2 66537  43.0004 101.1605 0001519 280.9947  33.7920 15.72752991  3712"}}, "geometry": {"type": "Point", "coordinates": [38.595306727403624, -38.65552287324081]}}, {"type": "Feature", "properties": {"norad_id": 66538, "name": "STARLINK-35577", "group": "last-30-days", "lat": -37.96343702730095, "lon": 40.86650898027258, "alt_km": 359.39685402485975, "timestamp": "2025-12-05T07:38:17.628232+00:00", "meta": {"OBJECT_NAME": "STARLINK-35577", "OBJECT_ID": "2025-265Y", "EPOCH": "2025-12-04T18:00:02.000160", "MEAN_MOTION": 15.72744715, "ECCENTRICITY": 0.0001498, "INCLINATION": 43.0004, "RA_OF_ASC_NODE": 101.1554, "ARG_OF_PERICENTER": 282.0304, "MEAN_ANOMALY": 34.6794, "EPHEMERIS_TYPE": 0, "CLASSIFICATION_TYPE": "U", "NORAD_CAT_ID": 66538, "ELEMENT_SET_NO": 999, "REV_AT_EPOCH": 371, "BSTAR": -0.015018, "MEAN_MOTION_DOT": -0.01825678, "MEAN_MOTION_DDOT": 0}, "tle": {"line1": "1 66538U 25265Y   25338.75002315 -.01825678  00000+0 -15018-1 0  9996", "line2": "2 66538  43.0004 101.1554 0001498 282.0304  34.6794 15.72744715  3716"}}, "geometry": {"type": "Point", "coordinates": [40.86650898027258, -37.96343702730095]}}, {"type": "Feature", "properties": {"norad_id": 66539, "name": "STARLINK-35697", "group": "last-30-days", "lat": -37.22815708480518, "lon": 43.094299621312906, "alt_km": 359.54535671692884, "timestamp": "2025-12-05T07:38:17.628242+00:00", "meta": {"OBJECT_NAME": "STARLINK-35697", "OBJECT_ID": "2025-265Z", "EPOCH": "2025-12-04T18:00:02.000160", "MEAN_MOTION": 15.72745683, "ECCENTRICITY": 0.0001281, "INCLINATION": 43.0004, "RA_OF_ASC_NODE": 101.1502, "ARG_OF_PERICENTER": 277.6107, "MEAN_ANOMALY": 41.0173, "EPHEMERIS_TYPE": 0, "CLASSIFICATION_TYPE": "U", "NORAD_CAT_ID": 66539, "ELEMENT_SET_NO": 999, "REV_AT_EPOCH": 371, "BSTAR": -0.015042, "MEAN_MOTION_DOT": -0.01828146, "MEAN_MOTION_DDOT": 0}, "tle": {"line1": "1 66539U 25265Z   25338.75002315 -.01828146  00000+0 -15042-1 0  9997", "line2": "2 66539  43.0004 101.1502 0001281 277.6107  41.0173 15.72745683  3719"}}, "geometry": {"type": "Point", "coordinates": [43.094299621312906, -37.22815708480518]}}, {"type": "Feature", "properties": {"norad_id": 66540, "name": "STARLINK-35818", "group": "last-30-days", "lat": -36.45263561551373, "lon": 45.275709795929274, "alt_km": 359.22045301082653, "timestamp": "2025-12-05T07:38:17.628252+00:00", "meta": {"OBJECT_NAME": "STARLINK-35818", "OBJECT_ID": "2025-265AA", "EPOCH": "2025-12-04T18:00:02.000160", "MEAN_MOTION": 15.72743604, "ECCENTRICITY": 0.0001643, "INCLINATION": 43.0002, "RA_OF_ASC_NODE": 101.1458, "ARG_OF_PERICENTER": 284.5709, "MEAN_ANOMALY": 35.9723, "EPHEMERIS_TYPE": 0, "CLASSIFICATION_TYPE": "U", "NORAD_CAT_ID": 66540, "ELEMENT_SET_NO": 999, "REV_AT_EPOCH": 371, "BSTAR": -0.014999, "MEAN_MOTION_DOT": -0.01823762, "MEAN_MOTION_DDOT": 0}, "tle": {"line1": "1 66540U 25265AA  25338.75002315 -.01823762  00000+0 -14999-1 0  9998", "line2": "2 66540  43.0002 101.1458 0001643 284.5709  35.9723 15.72743604  3710"}}, "geometry": {"type": "Point", "coordinates": [45.275709795929274, -36.45263561551373]}}]}